[{"OBJECT_NAME":"OBJECT A","OBJECT_ID":"2023-085A","EPOCH":"2026-03-09T21:42:39.504096","MEAN_MOTION":15.28003151,"ECCENTRICITY":0.00073195,"INCLINATION":97.4858,"RA_OF_ASC_NODE":178.2033,"ARG_OF_PERICENTER":32.2499,"MEAN_ANOMALY":327.9186,"EPHEMERIS_TYPE":0,"CLASSIFICATION_TYPE":"U","NORAD_CAT_ID":57004,"ELEMENT_SET_NO":999,"REV_AT_EPOCH":15139,"BSTAR":0.00063583858,"MEAN_MOTION_DOT":0.0001733,"MEAN_MOTION_DDOT":0},{"OBJECT_NAME":"STARLINK-33625","OBJECT_ID":"2025-057W","EPOCH":"2026-03-09T05:17:50.577792","MEAN_MOTION":15.2758344,"ECCENTRICITY":0.00017171,"INCLINATION":43.0012,"RA_OF_ASC_NODE":25.8894,"ARG_OF_PERICENTER":253.4037,"MEAN_ANOMALY":106.6627,"EPHEMERIS_TYPE":0,"CLASSIFICATION_TYPE":"U","NORAD_CAT_ID":63327,"ELEMENT_SET_NO":999,"REV_AT_EPOCH":5579,"BSTAR":0.0008984879,"MEAN_MOTION_DOT":0.00024547,"MEAN_MOTION_DDOT":0}]
